{"fetched_at":"2026-05-03T06:27:58Z","count":17151,"tles":[{"name":"STARLINK-37468","line1":"1 68857U 26094U   26122.41670139 -.01701469  88994-3 -31700-2 0  9993","line2":"2 68857  97.2814 136.0790 0001244  88.3350 152.0313 16.01163821  2007","category":"Starlink"}]}