{
  "norad_id": 68857,
  "name": "STARLINK-37468",
  "history": [
    {
      "epoch": "2026-05-02T10:00:03.000096Z",
      "apogee_km": 272.0218390351565,
      "perigee_km": 270.36748531760713,
      "latitude_deg": -59.79634595030491,
      "longitude_deg": -66.87553608056153,
      "height_km": 295.06521696676714,
      "semi_major_axis_km": 6649.3316621763815,
      "eccentricity": 0.0001244,
      "inclination_deg": 97.2814,
      "raan_deg": 136.079,
      "arg_perigee_deg": 88.335,
      "mean_anomaly_deg": 152.0313,
      "mean_motion_rev_day": 16.01163821
    }
  ]
}